CCSDS_OMM_VERS = 2.0
CREATION_DATE  = 
ORIGINATOR     = 

OBJECT_NAME    = SL-16 R/B
OBJECT_ID      = 1993-016B
CENTER_NAME    = EARTH
REF_FRAME      = TEME
TIME_SYSTEM    = UTC
MEAN_ELEMENT_THEORY = SGP/SGP4

EPOCH          = 2026-02-17T00:01:09.115680
MEAN_MOTION    = 14.15300761
ECCENTRICITY   = .00105177
INCLINATION    = 71.0046
RA_OF_ASC_NODE = 258.6358
ARG_OF_PERICENTER = 342.3613
MEAN_ANOMALY   = 17.7143

EPHEMERIS_TYPE = 0
CLASSIFICATION_TYPE = U
NORAD_CAT_ID   = 22566
ELEMENT_SET_NO = 999
REV_AT_EPOCH   = 69924
BSTAR          = -.91829701E-4
MEAN_MOTION_DOT = -.227E-5
MEAN_MOTION_DDOT = 0

CCSDS_OMM_VERS = 2.0
CREATION_DATE  = 
ORIGINATOR     = 

OBJECT_NAME    = COSMOS 2242
OBJECT_ID      = 1993-024A
CENTER_NAME    = EARTH
REF_FRAME      = TEME
TIME_SYSTEM    = UTC
MEAN_ELEMENT_THEORY = SGP/SGP4

EPOCH          = 2026-02-17T02:36:26.156448
MEAN_MOTION    = 14.96464022
ECCENTRICITY   = .00169794
INCLINATION    = 82.5178
RA_OF_ASC_NODE = 286.4036
ARG_OF_PERICENTER = 19.6328
MEAN_ANOMALY   = 340.5544

EPHEMERIS_TYPE = 0
CLASSIFICATION_TYPE = U
NORAD_CAT_ID   = 22626
ELEMENT_SET_NO = 999
REV_AT_EPOCH   = 77731
BSTAR          = .18403046E-3
MEAN_MOTION_DOT = .212E-4
MEAN_MOTION_DDOT = 0

CCSDS_OMM_VERS = 2.0
CREATION_DATE  = 
ORIGINATOR     = 

OBJECT_NAME    = SL-16 R/B
OBJECT_ID      = 1993-059B
CENTER_NAME    = EARTH
REF_FRAME      = TEME
TIME_SYSTEM    = UTC
MEAN_ELEMENT_THEORY = SGP/SGP4

EPOCH          = 2026-02-17T06:58:32.102112
MEAN_MOTION    = 14.17227627
ECCENTRICITY   = .0019342
INCLINATION    = 70.9891
RA_OF_ASC_NODE = 54.1440
ARG_OF_PERICENTER = 244.6538
MEAN_ANOMALY   = 115.2583

EPHEMERIS_TYPE = 0
CLASSIFICATION_TYPE = U
NORAD_CAT_ID   = 22803
ELEMENT_SET_NO = 999
REV_AT_EPOCH   = 67664
BSTAR          = -.47377298E-4
MEAN_MOTION_DOT = -.144E-5
MEAN_MOTION_DDOT = 0

CCSDS_OMM_VERS = 2.0
CREATION_DATE  = 
ORIGINATOR     = 

OBJECT_NAME    = ARIANE 40 R/B
OBJECT_ID      = 1993-061H
CENTER_NAME    = EARTH
REF_FRAME      = TEME
TIME_SYSTEM    = UTC
MEAN_ELEMENT_THEORY = SGP/SGP4

EPOCH          = 2026-02-17T04:02:24.041184
MEAN_MOTION    = 14.32849831
ECCENTRICITY   = .00102625
INCLINATION    = 98.4961
RA_OF_ASC_NODE = 117.4564
ARG_OF_PERICENTER = 351.2636
MEAN_ANOMALY   = 8.8368

EPHEMERIS_TYPE = 0
CLASSIFICATION_TYPE = U
NORAD_CAT_ID   = 22830
ELEMENT_SET_NO = 999
REV_AT_EPOCH   = 69116
BSTAR          = .99278601E-4
MEAN_MOTION_DOT = .228E-5
MEAN_MOTION_DDOT = 0

CCSDS_OMM_VERS = 2.0
CREATION_DATE  = 
ORIGINATOR     = 

OBJECT_NAME    = COSMOS 2278
OBJECT_ID      = 1994-023A
CENTER_NAME    = EARTH
REF_FRAME      = TEME
TIME_SYSTEM    = UTC
MEAN_ELEMENT_THEORY = SGP/SGP4

EPOCH          = 2026-02-16T21:00:51.355296
MEAN_MOTION    = 14.14364505
ECCENTRICITY   = .00069933
INCLINATION    = 71.0504
RA_OF_ASC_NODE = 218.6423
ARG_OF_PERICENTER = 54.2876
MEAN_ANOMALY   = 305.8896

EPHEMERIS_TYPE = 0
CLASSIFICATION_TYPE = U
NORAD_CAT_ID   = 23087
ELEMENT_SET_NO = 999
REV_AT_EPOCH   = 64186
BSTAR          = .10752895E-3
MEAN_MOTION_DOT = .159E-5
MEAN_MOTION_DDOT = 0

CCSDS_OMM_VERS = 2.0
CREATION_DATE  = 
ORIGINATOR     = 

OBJECT_NAME    = SL-16 R/B
OBJECT_ID      = 1994-023B
CENTER_NAME    = EARTH
REF_FRAME      = TEME
TIME_SYSTEM    = UTC
MEAN_ELEMENT_THEORY = SGP/SGP4

EPOCH          = 2026-02-17T06:50:21.089184
MEAN_MOTION    = 14.15007879
ECCENTRICITY   = .00047632
INCLINATION    = 70.9993
RA_OF_ASC_NODE = 113.7424
ARG_OF_PERICENTER = 305.0313
MEAN_ANOMALY   = 55.0362

EPHEMERIS_TYPE = 0
CLASSIFICATION_TYPE = U
NORAD_CAT_ID   = 23088
ELEMENT_SET_NO = 999
REV_AT_EPOCH   = 64320
BSTAR          = .20856575E-3
MEAN_MOTION_DOT = .356E-5
MEAN_MOTION_DDOT = 0

CCSDS_OMM_VERS = 2.0
CREATION_DATE  = 
ORIGINATOR     = 

OBJECT_NAME    = SL-16 R/B
OBJECT_ID      = 1994-074B
CENTER_NAME    = EARTH
REF_FRAME      = TEME
TIME_SYSTEM    = UTC
MEAN_ELEMENT_THEORY = SGP/SGP4

EPOCH          = 2026-02-17T02:08:09.277728
MEAN_MOTION    = 14.79383204
ECCENTRICITY   = .00051761
INCLINATION    = 97.7137
RA_OF_ASC_NODE = 79.7384
ARG_OF_PERICENTER = 293.5892
MEAN_ANOMALY   = 86.9807

EPHEMERIS_TYPE = 0
CLASSIFICATION_TYPE = U
NORAD_CAT_ID   = 23343
ELEMENT_SET_NO = 999
REV_AT_EPOCH   = 68420
BSTAR          = .83848577E-4
MEAN_MOTION_DOT = .576E-5
MEAN_MOTION_DDOT = 0

CCSDS_OMM_VERS = 2.0
CREATION_DATE  = 
ORIGINATOR     = 

OBJECT_NAME    = SL-16 R/B
OBJECT_ID      = 1994-077B
CENTER_NAME    = EARTH
REF_FRAME      = TEME
TIME_SYSTEM    = UTC
MEAN_ELEMENT_THEORY = SGP/SGP4

EPOCH          = 2026-02-17T06:35:19.623552
MEAN_MOTION    = 14.15562416
ECCENTRICITY   = .00039552
INCLINATION    = 70.9830
RA_OF_ASC_NODE = 35.4371
ARG_OF_PERICENTER = 230.7255
MEAN_ANOMALY   = 129.3517

EPHEMERIS_TYPE = 0
CLASSIFICATION_TYPE = U
NORAD_CAT_ID   = 23405
ELEMENT_SET_NO = 999
REV_AT_EPOCH   = 61334
BSTAR          = .15464666E-3
MEAN_MOTION_DOT = .255E-5
MEAN_MOTION_DDOT = 0

CCSDS_OMM_VERS = 2.0
CREATION_DATE  = 
ORIGINATOR     = 

OBJECT_NAME    = ARIANE 40+ R/B
OBJECT_ID      = 1995-021B
CENTER_NAME    = EARTH
REF_FRAME      = TEME
TIME_SYSTEM    = UTC
MEAN_ELEMENT_THEORY = SGP/SGP4

EPOCH          = 2026-02-17T04:04:48.541728
MEAN_MOTION    = 14.39757111
ECCENTRICITY   = .00065978
INCLINATION    = 98.4542
RA_OF_ASC_NODE = 119.9263
ARG_OF_PERICENTER = 193.5673
MEAN_ANOMALY   = 193.9105

EPHEMERIS_TYPE = 0
CLASSIFICATION_TYPE = U
NORAD_CAT_ID   = 23561
ELEMENT_SET_NO = 999
REV_AT_EPOCH   = 61629
BSTAR          = .12115506E-3
MEAN_MOTION_DOT = .336E-5
MEAN_MOTION_DDOT = 0

CCSDS_OMM_VERS = 2.0
CREATION_DATE  = 
ORIGINATOR     = 

OBJECT_NAME    = SL-16 R/B
OBJECT_ID      = 1995-058B
CENTER_NAME    = EARTH
REF_FRAME      = TEME
TIME_SYSTEM    = UTC
MEAN_ELEMENT_THEORY = SGP/SGP4

EPOCH          = 2026-02-16T22:15:06.916896
MEAN_MOTION    = 14.15495992
ECCENTRICITY   = .00116182
INCLINATION    = 71.0198
RA_OF_ASC_NODE = 223.8439
ARG_OF_PERICENTER = 161.2087
MEAN_ANOMALY   = 198.9467

EPHEMERIS_TYPE = 0
CLASSIFICATION_TYPE = U
NORAD_CAT_ID   = 23705
ELEMENT_SET_NO = 999
REV_AT_EPOCH   = 56491
BSTAR          = .9147131E-5
MEAN_MOTION_DOT = -.3E-6
MEAN_MOTION_DDOT = 0

CCSDS_OMM_VERS = 2.0
CREATION_DATE  = 
ORIGINATOR     = 

OBJECT_NAME    = SL-16 R/B
OBJECT_ID      = 1996-051B
CENTER_NAME    = EARTH
REF_FRAME      = TEME
TIME_SYSTEM    = UTC
MEAN_ELEMENT_THEORY = SGP/SGP4

EPOCH          = 2026-02-16T22:04:12.156960
MEAN_MOTION    = 14.12409872
ECCENTRICITY   = .00168747
INCLINATION    = 70.7571
RA_OF_ASC_NODE = 219.2001
ARG_OF_PERICENTER = 177.5552
MEAN_ANOMALY   = 182.5654

EPHEMERIS_TYPE = 0
CLASSIFICATION_TYPE = U
NORAD_CAT_ID   = 24298
ELEMENT_SET_NO = 999
REV_AT_EPOCH   = 51871
BSTAR          = .84029249E-4
MEAN_MOTION_DOT = .106E-5
MEAN_MOTION_DDOT = 0

CCSDS_OMM_VERS = 2.0
CREATION_DATE  = 
ORIGINATOR     = 

OBJECT_NAME    = ORBVIEW 2 (SEASTAR)
OBJECT_ID      = 1997-037A
CENTER_NAME    = EARTH
REF_FRAME      = TEME
TIME_SYSTEM    = UTC
MEAN_ELEMENT_THEORY = SGP/SGP4

EPOCH          = 2026-02-17T01:33:15.546528
MEAN_MOTION    = 14.35478650
ECCENTRICITY   = .00031403
INCLINATION    = 98.8528
RA_OF_ASC_NODE = 211.8342
ARG_OF_PERICENTER = 113.0491
MEAN_ANOMALY   = 247.1025

EPHEMERIS_TYPE = 0
CLASSIFICATION_TYPE = U
NORAD_CAT_ID   = 24883
ELEMENT_SET_NO = 999
REV_AT_EPOCH   = 50551
BSTAR          = .12951558E-3
MEAN_MOTION_DOT = .326E-5
MEAN_MOTION_DDOT = 0

