SL-16 R/B               
1 22566U 93016B   26048.00079995 -.00000227  00000+0 -91830-4 0  9996
2 22566  71.0046 258.6358 0010517 342.3613  17.7143 14.15300761699245
COSMOS 2242             
1 22626U 93024A   26048.10863607  .00002120  00000+0  18403-3 0  9990
2 22626  82.5178 286.4036 0016979  19.6328 340.5544 14.96464022777319
SL-16 R/B               
1 22803U 93059B   26048.29064933 -.00000144  00000+0 -47377-4 0  9999
2 22803  70.9891  54.1440 0019342 244.6538 115.2583 14.17227627676643
ARIANE 40 R/B           
1 22830U 93061H   26048.16833381  .00000228  00000+0  99279-4 0  9998
2 22830  98.4961 117.4564 0010262 351.2636   8.8368 14.32849831691168
COSMOS 2278             
1 23087U 94023A   26047.87559439  .00000159  00000+0  10753-3 0  9990
2 23087  71.0504 218.6423 0006993  54.2876 305.8896 14.14364505641861
SL-16 R/B               
1 23088U 94023B   26048.28496631  .00000356  00000+0  20857-3 0  9996
2 23088  70.9993 113.7424 0004763 305.0313  55.0362 14.15007879643205
SL-16 R/B               
1 23343U 94074B   26048.08899627  .00000576  00000+0  83849-4 0  9991
2 23343  97.7137  79.7384 0005176 293.5892  86.9807 14.79383204684205
SL-16 R/B               
1 23405U 94077B   26048.27453268  .00000255  00000+0  15465-3 0  9993
2 23405  70.9830  35.4371 0003955 230.7255 129.3517 14.15562416613342
ARIANE 40+ R/B          
1 23561U 95021B   26048.17000627  .00000336  00000+0  12116-3 0  9992
2 23561  98.4542 119.9263 0006597 193.5673 193.9105 14.39757111616294
SL-16 R/B               
1 23705U 95058B   26047.92716339 -.00000030  00000+0  91471-5 0  9993
2 23705  71.0198 223.8439 0011618 161.2087 198.9467 14.15495992564916
SL-16 R/B               
1 24298U 96051B   26047.91958515  .00000106  00000+0  84029-4 0  9991
2 24298  70.7571 219.2001 0016874 177.5552 182.5654 14.12409872518718
ORBVIEW 2 (SEASTAR)     
1 24883U 97037A   26048.06476327  .00000326  00000+0  12952-3 0  9998
2 24883  98.8528 211.8342 0003140 113.0491 247.1025 14.35478650505515
